[{"OBJECT_NAME":"TOMORROW-S2","OBJECT_ID":"2024-149T","EPOCH":"2026-03-09T18:02:42.746496","MEAN_MOTION":15.30674935,"ECCENTRICITY":0.0001648,"INCLINATION":97.3857,"RA_OF_ASC_NODE":150.0385,"ARG_OF_PERICENTER":234.3331,"MEAN_ANOMALY":125.7757,"EPHEMERIS_TYPE":0,"CLASSIFICATION_TYPE":"U","NORAD_CAT_ID":60485,"ELEMENT_SET_NO":999,"REV_AT_EPOCH":8686,"BSTAR":0.00027683033,"MEAN_MOTION_DOT":8.133e-5,"MEAN_MOTION_DDOT":0},{"OBJECT_NAME":"STARLINK-34326","OBJECT_ID":"2025-117U","EPOCH":"2026-03-09T22:31:03.839232","MEAN_MOTION":15.30221515,"ECCENTRICITY":0.00021741,"INCLINATION":53.16,"RA_OF_ASC_NODE":38.4582,"ARG_OF_PERICENTER":95.067,"MEAN_ANOMALY":265.0579,"EPHEMERIS_TYPE":0,"CLASSIFICATION_TYPE":"U","NORAD_CAT_ID":64221,"ELEMENT_SET_NO":999,"REV_AT_EPOCH":4459,"BSTAR":0.0012771202,"MEAN_MOTION_DOT":0.00037684,"MEAN_MOTION_DDOT":0}]
